point_id,pointname,office_id,latitude,longitude,address
1,稲取,43,347786,1390528,賀茂郡東伊豆町稲取
2,天城,43,348136,1389364,賀茂郡河津町梨本
3,南伊豆,43,346494,1388611,賀茂郡南伊豆町下賀茂
4,門野,43,347738,1388208,賀茂郡松崎町門野
5,婆娑羅,43,347266,1388675,下田市加増野
6,下田,43,346791,1389533,下田市中
11,松崎,43,347555,1387825,賀茂郡松崎町江奈
12,仁科峠,43,348533,1388422,賀茂郡西伊豆町宇久須
13,椎原,43,347194,1389297,下田市椎原
14,湯ヶ野,43,347730,1389583,賀茂郡河津町湯ケ野
15,大峠,43,347097,1387863,賀茂郡松崎町岩科南側
19,熱川,43,348208,1390625,賀茂郡東伊豆町奈良本
20,宇久須,43,348436,1387908,賀茂郡西伊豆町宇久須
23,大鍋,43,347700,1388985,賀茂郡松崎町池代
37,白田,43,348044,1390111,賀茂郡東伊豆町白田
101,奥野ダム,42,349341,1390728,伊東市鎌田
102,鎌田,42,349275,1390589,伊東市鎌田
103,多賀,42,350463,1390642,熱海市下多賀
104,城ノ平,42,349341,1390860,伊東市荻
105,熱海,42,350925,1390719,熱海市水口町
106,伊東,42,349750,1390958,伊東市湯川
201,湯ヶ島,40,348986,1389286,伊豆市市山
202,丹那,40,351069,1390125,田方郡函南町平井
203,市ノ瀬,40,351697,1389528,裾野市茶畑
205,須山,40,352477,1388514,裾野市須山
206,愛鷹,40,351944,1388417,沼津市足高
207,船原,40,349211,1388447,伊豆市上船原
208,沼津,40,351049,1388617,沼津市高島本町
215,御殿場,40,352772,1389264,御殿場市竈
216,修善寺,40,349680,1389516,伊豆市加殿
217,土肥,40,349088,1387922,伊豆市土肥
218,天城高原(道),40,349025,1390417,伊豆市冷川
219,小山,40,353591,1389878,駿東郡小山町藤曲
221,三島,40,351158,1389216,三島市北田町
223,桑原,40,351458,1390008,田方郡函南町桑原
224,浮橋,40,350519,1390217,伊豆の国市浮橋
225,戸田新田,40,349727,1388192,沼津市戸田
301,勢子辻,41,352319,1387528,富士市桑崎
302,西船津,41,351466,1387672,富士市西船津
303,長貫,41,352022,1385697,富士宮市長貫
304,富士,41,351533,1386650,富士市本市場
308,富士宮,41,352113,1386167,富士宮市黒田
309,上井出,41,353088,1386008,富士宮市上井出
310,広見,41,353516,1386208,富士宮市広見
311,山宮,41,352822,1386433,富士宮市山宮
313,上条,41,352833,1385889,富士宮市上条
314,石坂,41,351813,1386878,富士市石坂
316,村山,41,352566,1386703,富士宮市村山
317,大渕(道),41,352994,1387521,富士市大渕
318,今宮,41,351947,1387253,富士市今宮
401,桑木穴,41,351472,1385800,富士市南松野
402,和田島,20,351086,1384807,静岡市清水区和田島
403,梅ヶ島,20,352550,1383456,静岡市葵区梅ヶ島
404,井川,20,352000,1382661,静岡市葵区井川
405,久能,20,349477,1384413,静岡市駿河区西平松
406,清沢,20,350313,1382564,静岡市葵区昼居渡
407,静岡,20,349652,1384094,静岡市駿河区有明町
412,能島,20,350213,1384617,静岡市清水区能島
418,麻機,20,350127,1384008,静岡市葵区平柳
419,俵沢,20,351041,1383683,静岡市葵区俵沢
420,平山,20,350738,1384292,静岡市葵区平山
422,用宗,20,349261,1383597,静岡市駿河区用宗
423,清水,20,350052,1384994,静岡市清水区日の出町
424,畑薙(道),20,353086,1381903,静岡市葵区田代
426,興津,20,350555,1385358,静岡市清水区興津中町
427,大川,20,350886,1382433,静岡市葵区楢尾
434,日本平,20,349761,1384669,静岡市清水区村松
501,本川根,21,351066,1381416,榛原郡川根本町千頭
502,伊久美,21,349638,1381581,島田市伊久美
503,島田,21,348358,1381767,島田市道悦
506,川根,21,349341,1380783,島田市川根町家山
511,藤枝,21,348452,1382392,藤枝市瀬戸新屋
512,瀬戸谷,21,349016,1382014,藤枝市滝沢
513,宮島,21,349483,1382525,藤枝市岡部町宮島
514,中港,21,348708,1383333,焼津市中港
601,静谷,21,347575,1381989,牧之原市静谷
602,波津,21,346775,1381981,牧之原市波津
603,御前崎,32,346052,1382203,御前崎市港
609,池新田,32,346502,1381278,御前崎市池新田
701,大河内,32,349405,1379856,周智郡森町三倉
702,粟ヶ岳,32,348380,1380806,掛川市東山
703,天方,32,348344,1379367,周智郡森町森
706,見付,32,347250,1378547,磐田市見付
707,小笠山,32,347305,1380166,掛川市入山瀬
708,牧の原,32,347625,1381406,菊川市沢水加
709,袋井,32,347372,1379250,袋井市山名町
715,掛川,32,347708,1380325,掛川市金城
716,大東,32,346716,1380444,掛川市大坂
717,豊浜,32,346775,1379017,磐田市豊浜
718,敷地,32,348436,1378808,磐田市岩室
720,黒俣,32,348944,1380355,掛川市黒俣
721,原野谷,32,348602,1380080,掛川市原野谷
722,孕丹橋,32,348531,1380247,掛川市孕石
723,太田川ダム管理所,32,349061,1379961,周智郡森町亀久保
801,川竹,30,350347,1380294,浜松市天竜区春野町川竹
802,門桁,30,351269,1379289,浜松市天竜区水窪町山住
803,坂野,30,349761,1377289,浜松市天竜区佐久間町浦川
804,天竜,30,348469,1378122,浜松市天竜区二俣町鹿島
810,水窪,30,351655,1378717,浜松市天竜区水窪町奥領家
811,春野,30,349780,1379014,浜松市天竜区春野町宮川
812,佐久間,30,350883,1378178,浜松市天竜区佐久間町佐久間
813,龍山,30,349683,1378333,浜松市天竜区龍山町戸倉
901,浜北,30,347894,1377931,浜松市浜北区西美薗
902,本坂,30,347938,1375031,浜松市北区三ヶ日町本坂
903,湖西,30,347152,1375344,湖西市吉美
904,浜松,30,347069,1377378,浜松市中区中央一丁目
908,堀留,30,346927,1376928,浜松市西区入野
913,細江,30,348147,1376633,浜松市北区細江町小野
914,新居,30,346897,1375839,湖西市新居町新居
915,初生,30,347661,1377300,浜松市北区初生
918,田沢,30,348994,1376556,浜松市北区引佐町四方浄
1001,都田川ダム(農),30,348725,1377283,浜松市北区引佐町川名
1002,渋川(農),30,349261,1376981,浜松市北区引佐町渋川
2000,天城,40,348769,1389772,伊豆市大字筏場字入天城
2001,上大見,40,349208,1390022,伊豆市地蔵堂原保
2002,中伊豆,40,349986,1390350,伊豆市上白岩字石上
2003,湯ヶ島,40,348669,1389325,伊豆市湯ヶ島
2004,持越,40,348786,1388852,伊豆市大字湯ヶ島字桐山
2005,柿木,40,349355,1389225,伊豆市本柿木字仲村
2006,達磨山,40,349702,1388830,伊豆市修善寺字藤ヶ平
2009,丹那,40,351069,1390167,田方郡函南町丹那
2010,市ノ瀬,40,351686,1389786,三島市字蟇が沢
2011,丸岳,40,352525,1389494,御殿場市神山字東山
2012,愛鷹,40,351886,1388733,裾野市大字大畑丸塚
2014,戸持,20,352536,1383522,静岡市葵区梅ヶ島
2015,玉川,20,351422,1383336,静岡市葵区柿島
2016,川島,20,351408,1382988,静岡市葵区大沢
2017,牛妻,20,350677,1383730,静岡市葵区牛妻
2018,大川,20,351150,1382213,静岡市葵区楢尾
2019,奈良間,20,350122,1382725,静岡市葵区奈良間
2020,静岡,20,349655,1383675,静岡市葵区田町
2022,大間,21,351811,1381155,榛原郡川根本町字奥泉於鶴作
2023,上川根,21,351052,1381619,榛原郡川根本町藤川
2024,笹間,21,350263,1381633,島田市川根町笹間上
2025,塩本,21,349583,1380280,島田市川根町家山
2027,北山,99,360227,1382180,茅野市湖東
2028,片桐松川,99,356225,1378783,長野県下伊那郡松川町大字上片桐
2029,小黒,99,358452,1382180,---
2030,赤穂,99,357280,1379347,駒ヶ根市上穂南
2031,小野,99,360427,1379700,長野県上伊那郡辰野町大字小野
2032,箕輪,99,358905,1379113,伊那市大字西箕輪字長胴
2033,太田切,99,357583,1378536,長野県上伊那郡宮田村
2034,下浜,99,360488,1380516,岡谷市湊字牛首
2035,後山,99,359658,1380611,諏訪市大字湖南字大助
2036,藤沢,99,358650,1380977,長野県上伊那郡高遠町大字長藤
2037,中沢,99,357169,1380394,駒ヶ根市中沢字曲り沢
2038,田切,99,356794,1378911,長野県上伊那郡飯島町大字飯島字横根山
2039,佐原,99,355325,1379383,長野県下伊那郡豊丘村神稲
2040,上久堅,99,354538,1378958,飯田市上久堅
2041,北沢,99,357391,1382166,---
2042,屋敷沢,99,357702,1381425,---
2043,荒川,99,356150,1381583,---
2044,小瀬戸湯,99,356541,1381341,---
2045,塩平,99,356997,1381297,---
2046,非持,99,358100,1380850,---
2047,松の田,99,355211,1380855,---
2048,上野々,99,355105,1380219,---
2049,沢井,99,355877,1380861,---
2050,鹿塩,99,356386,1380611,---
2051,四徳,99,356491,1380097,---
2052,小渋ダム,99,356022,1379805,---
2053,平田,32,346936,1380844,菊川市嶺田（平田出）
2054,河城,32,347602,1381158,菊川市和田上ノ原
2055,金谷,21,348169,1381180,島田市菊川国原
2056,丹野,32,347252,1381380,菊川市丹野奥原
2057,入山瀬,32,347100,1380352,掛川市上土方落合
2062,津具,99,351711,1376119,愛知県北設楽郡津具村大字上泙野
2063,坂宇場,99,351761,1376838,愛知県北設楽郡豊根村大字坂宇宮島
2064,粟世,99,351822,1377313,愛知県北設楽郡豊根村大字三沢字水口
2066,新豊根ダム,99,351205,1377630,
2067,振草,99,350941,1376525,愛知県北設楽郡東栄町振草字上栗代休石
2068,長島ダム,21,351644,1381597,榛原郡川根本町犬間
2070,千枚,20,354494,1382150,静岡市葵区井川
2071,畑薙,20,353236,1381744,静岡市葵区井川
2072,小河内,20,353022,1382769,静岡市葵区井川
2073,井川,20,352050,1382000,静岡市葵区井川
2075,藤平,30,349033,1377708,浜松市天竜区西藤平字落合
2078,田口,99,350883,1375658,愛知県北設楽郡設楽町大字田口字シウキ
2079,豊邦,99,350716,1374727,愛知県北設楽郡設楽町豊邦字細野
2080,高里,99,349688,1374347,愛知県北設楽郡作手村大字鴨ヶ谷字シガノオ
2081,布里,99,349833,1375258,愛知県南設楽郡鳳来町布里字栗峰
2082,川合,99,349986,1376677,愛知県南設楽郡鳳来町川合字内貝津
2083,山吉田,99,348988,1376058,愛知県南設楽郡鳳来町上吉田字山本
2084,石田,99,348877,1374963,新城市庭野字萩野
2085,豊橋,99,347327,1373791,---
2087,槍ヶ入,99,353511,1375722,---
2088,上矢作,99,353036,1375063,---
2089,平谷,99,353194,1376341,---
2092,矢作ダム,99,352330,1374211,---
2094,道慈,99,352405,1372616,愛知県西加茂郡千洗町道慈
2096,乙部,99,351486,1371580,豊田市乙部字沖の田1
2099,岡崎,99,349561,1371536,---
2100,桜形,99,349861,1373175,愛知県額田郡額田町大字桜形字市場
2101,宮崎,99,349333,1373619,愛知県額田郡額田町大字宮崎字亀穴
2102,釜無,99,358638,1382283,長野県諏訪郡富士見町落合
2103,小渕沢,99,358547,1383200,山梨県北巨摩郡小淵沢町字渕子
2104,藤田,99,355833,1384833,山梨県南アルプス市藤田
2105,下部,99,354436,1384827,山梨県身延町常葉
2106,睦合,99,352844,1384575,山梨県南巨摩郡南部町南部
2107,松岡,99,351508,1386319,富士市松岡
2108,野呂川,99,356425,1382991,山梨県南アルプス市芦安戸倉
2109,夜叉神,99,355352,1383400,山梨県南アルプス市芦安芦倉
2110,硯島,99,354055,1383350,山梨県南巨摩郡早川町雨畑
2111,浅川,99,358694,1384566,山梨県北杜市高根町浅川
2112,増富,99,358716,1385052,山梨県北杜市須玉町小尾
2113,三富,99,357722,1387388,山梨県山梨市三富村
2114,甲府,99,356725,1385722,山梨県甲府市緑ヶ丘
2115,石和,99,356500,1386333,山梨県笛吹市石和町八田
2116,市川大門,99,355583,1384916,山梨県西八代郡市川大門町
2117,神金,99,357088,1387761,山梨県塩山市下小田原
2118,黒駒,99,356000,1387166,山梨県笛吹市御坂町上黒駒
